24967,IRIDIUM 36,1997,100.21,-1.0,-,86.4,Inactive,0,LEO,USA,USA,Unknown,Unknown,Unknown,1 24967U 97056C   24220.23855048  .00000813  00000+0  26811-3 0  9992,2 24967  86.3980 304.8633 0002078  91.6055 268.5380 14.36930499407128,14.36930499,0.0002078,LEO
25042,IRIDIUM 39,1997,99.44,-1.0,-,86.4,Inactive,0,LEO,USA,USA,Unknown,Unknown,Unknown,1 25042U 97069D   24219.86795595  .00001529  00000+0  40484-3 0  9995,2 25042  86.3958 345.8592 0016098 276.1254  83.8115 14.48128590403455,14.4812859,0.0016098,LEO
25043,IRIDIUM 38,1997,100.18,-1.0,-,86.4,Inactive,0,LEO,USA,USA,Unknown,Unknown,Unknown,1 25043U 97069E   24220.50861829  .00001090  00000+0  35874-3 0  9993,2 25043  86.3991   5.0939 0003666  72.4204 287.7393 14.37381100400885,14.373811,0.0003666,LEO
25077,IRIDIUM 42,1997,100.3,-1.0,-,86.4,Inactive,0,LEO,PRC,USA,Unknown,Unknown,Unknown,1 25077U 97077A   24220.48302098  .00001002  00000+0  34061-3 0  9994,2 25077  86.3988  10.8845 0002707  86.1152 274.0354 14.35669644396179,14.35669644,0.0002707,LEO
25078,IRIDIUM 44,1997,100.03,-1.0,-,86.4,Inactive,0,LEO,PRC,USA,Unknown,Unknown,Unknown,1 25078U 97077B   24220.44561554  .00001012  00000+0  31840-3 0  9998,2 25078  86.3995 353.6758 0002172  42.5678 317.5688 14.39518921398556,14.39518921,0.0002172,LEO
25104,IRIDIUM 45,1997,95.68,-1.0,-,86.38,Inactive,0,LEO,USA,USA,Unknown,Unknown,Unknown,1 25104U 97082A   24220.44516917  .00027167  00000+0  14448-2 0  9990,2 25104  86.3759 198.1649 0156556  53.7465 307.8119 15.05082397404566,15.05082397,0.0156556,LEO
25105,IRIDIUM 24,1997,99.91,-1.0,-,86.39,Inactive,0,LEO,USA,USA,Unknown,Unknown,Unknown,1 25105U 97082B   24220.47040762  .00001098  00000+0  33313-3 0  9992,2 25105  86.3913 213.1634 0012992  43.0367 317.1847 14.41308149398018,14.41308149,0.0012992,LEO
25262,IRIDIUM 51,1998,95.12,-1.0,-,86.39,Inactive,0,LEO,PRC,USA,Unknown,Unknown,Unknown,1 25262U 98018A   24220.45443132  .00030458  00000+0  13268-2 0  9990,2 25262  86.3945 207.8079 0137591 355.0997   4.8884 15.13817147399169,15.13817147,0.0137591,LEO
